{"type": "FeatureCollection", "features": [ {"type": "Feature", "properties": {"norad_id": 31985, "name": "FENGYUN 1C DEB", "group": "fengyun-1c-debris", "lat": -51.80806668926197, "lon": -99.18030333200225, "alt_km": 780.152670202704, "timestamp": "2025-12-15T04:01:20.736758+00:00", "meta": {"OBJECT_NAME": "FENGYUN 1C DEB", "OBJECT_ID": "1999-025CPN", "EPOCH": "2025-12-13T23:34:50.116800", "MEAN_MOTION": 14.22977716, "ECCENTRICITY": 0.01504255, "INCLINATION": 98.2196, "RA_OF_ASC_NODE": 249.1254, "ARG_OF_PERICENTER": 243.0612, "MEAN_ANOMALY": 115.5134, "EPHEMERIS_TYPE": 0, "CLASSIFICATION_TYPE": "U", "NORAD_CAT_ID": 31985, "ELEMENT_SET_NO": 999, "REV_AT_EPOCH": 95628, "BSTAR": 0.00043991826, "MEAN_MOTION_DOT": 1.071e-05, "MEAN_MOTION_DDOT": 0}, "tle": {"line1": "1 31985U 99025CPN 25347.98252450  .00001071  00000+0  43992-3 0  9995", "line2": "2 31985  98.2196 249.1254 0150425 243.0612 115.5134 14.22977716956281"}}, "geometry": {"type": "Point", "coordinates": [-99.18030333200225, -51.80806668926197]}}, {"type": "Feature", "properties": {"norad_id": 31987, "name": "FENGYUN 1C DEB", "group": "fengyun-1c-debris", "lat": -75.61003999482566, "lon": 1.2761896863863174, "alt_km": 773.4284657679164, "timestamp": "2025-12-15T04:01:20.736769+00:00", "meta": {"OBJECT_NAME": "FENGYUN 1C DEB", "OBJECT_ID": "1999-025CPQ", "EPOCH": "2025-12-13T09:52:48.764064", "MEAN_MOTION": 14.44921108, "ECCENTRICITY": 0.00515002, "INCLINATION": 99.0393, "RA_OF_ASC_NODE": 321.0593, "ARG_OF_PERICENTER": 155.5425, "MEAN_ANOMALY": 356.601, "EPHEMERIS_TYPE": 0, "CLASSIFICATION_TYPE": "U", "NORAD_CAT_ID": 31987, "ELEMENT_SET_NO": 999, "REV_AT_EPOCH": 96379, "BSTAR": 0.0016080994, "MEAN_MOTION_DOT": 5.647e-05, "MEAN_MOTION_DDOT": 0}, "tle": {"line1": "1 31987U 99025CPQ 25347.41167551  .00005647  00000+0  16081-2 0  9993", "line2": "2 31987  99.0393 321.0593 0051500 155.5425 356.6010 14.44921108963793"}}, "geometry": {"type": "Point", "coordinates": [1.2761896863863174, -75.61003999482566]}}, {"type": "Feature", "properties": {"norad_id": 31989, "name": "FENGYUN 1C DEB", "group": "fengyun-1c-debris", "lat": 50.05832645529257, "lon": -118.51401604835488, "alt_km": 991.9450396321017, "timestamp": "2025-12-15T04:01:20.736779+00:00", "meta": {"OBJECT_NAME": "FENGYUN 1C DEB", "OBJECT_ID": "1999-025CPS", "EPOCH": "2025-12-14T03:23:47.908608", "MEAN_MOTION": 13.93590133, "ECCENTRICITY": 0.01152052, "INCLINATION": 99.2132, "RA_OF_ASC_NODE": 49.2878, "ARG_OF_PERICENTER": 295.2868, "MEAN_ANOMALY": 89.1069, "EPHEMERIS_TYPE": 0, "CLASSIFICATION_TYPE": "U", "NORAD_CAT_ID": 31989, "ELEMENT_SET_NO": 999, "REV_AT_EPOCH": 93737, "BSTAR": 0.00062625938, "MEAN_MOTION_DOT": 8.23e-06, "MEAN_MOTION_DDOT": 0}, "tle": {"line1": "1 31989U 99025CPS 25348.14152672  .00000823  00000+0  62626-3 0  9992", "line2": "2 31989  99.2132  49.2878 0115205 295.2868  89.1069 13.93590133937379"}}, "geometry": {"type": "Point", "coordinates": [-118.51401604835488, 50.05832645529257]}}, {"type": "Feature", "properties": {"norad_id": 31990, "name": "FENGYUN 1C DEB", "group": "fengyun-1c-debris", "lat": -80.70903915537647, "lon": 92.00745745145554, "alt_km": 1058.9058186494885, "timestamp": "2025-12-15T04:01:20.736789+00:00", "meta": {"OBJECT_NAME": "FENGYUN 1C DEB", "OBJECT_ID": "1999-025CPT", "EPOCH": "2025-12-13T08:19:13.863072", "MEAN_MOTION": 13.5720279, "ECCENTRICITY": 0.02602077, "INCLINATION": 99.1607, "RA_OF_ASC_NODE": 9.795, "ARG_OF_PERICENTER": 183.0012, "MEAN_ANOMALY": 193.3512, "EPHEMERIS_TYPE": 0, "CLASSIFICATION_TYPE": "U", "NORAD_CAT_ID": 31990, "ELEMENT_SET_NO": 999, "REV_AT_EPOCH": 62780, "BSTAR": 0.00038185825, "MEAN_MOTION_DOT": 2.99e-06, "MEAN_MOTION_DDOT": 0}, "tle": {"line1": "1 31990U 99025CPT 25347.34668823  .00000299  00000+0  38186-3 0  9996", "line2": "2 31990  99.1607   9.7950 0260207 183.0012 193.3512 13.57202790627801"}}, "geometry": {"type": "Point", "coordinates": [92.00745745145554, -80.70903915537647]}}, {"type": "Feature", "properties": {"norad_id": 31991, "name": "FENGYUN 1C DEB", "group": "fengyun-1c-debris", "lat": -37.7151023472772, "lon": -173.43548289085084, "alt_km": 1019.4224343227643, "timestamp": "2025-12-15T04:01:20.736800+00:00", "meta": {"OBJECT_NAME": "FENGYUN 1C DEB", "OBJECT_ID": "1999-025CPU", "EPOCH": "2025-12-10T18:22:22.024416", "MEAN_MOTION": 13.6127752, "ECCENTRICITY": 0.02446272, "INCLINATION": 100.4864, "RA_OF_ASC_NODE": 173.6062, "ARG_OF_PERICENTER": 58.2006, "MEAN_ANOMALY": 304.2706, "EPHEMERIS_TYPE": 0, "CLASSIFICATION_TYPE": "U", "NORAD_CAT_ID": 31991, "ELEMENT_SET_NO": 999, "REV_AT_EPOCH": 62060, "BSTAR": 0.00020963887, "MEAN_MOTION_DOT": 1.45e-06, "MEAN_MOTION_DDOT": 0}, "tle": {"line1": "1 31991U 99025CPU 25344.76553269  .00000145  00000+0  20964-3 0  9992", "line2": "2 31991 100.4864 173.6062 0244627  58.2006 304.2706 13.61277520620609"}}, "geometry": {"type": "Point", "coordinates": [-173.43548289085084, -37.7151023472772]}}, {"type": "Feature", "properties": {"norad_id": 31992, "name": "FENGYUN 1C DEB", "group": "fengyun-1c-debris", "lat": -50.390858555188586, "lon": 117.50785589782373, "alt_km": 1538.4416525371917, "timestamp": "2025-12-15T04:01:20.736810+00:00", "meta": {"OBJECT_NAME": "FENGYUN 1C DEB", "OBJECT_ID": "1999-025CPV", "EPOCH": "2025-12-12T04:04:23.293056", "MEAN_MOTION": 13.22988689, "ECCENTRICITY": 0.05424019, "INCLINATION": 99.1658, "RA_OF_ASC_NODE": 306.1111, "ARG_OF_PERICENTER": 30.97, "MEAN_ANOMALY": 332.2249, "EPHEMERIS_TYPE": 0, "CLASSIFICATION_TYPE": "U", "NORAD_CAT_ID": 31992, "ELEMENT_SET_NO": 999, "REV_AT_EPOCH": 53867, "BSTAR": 0.001808457, "MEAN_MOTION_DOT": 1.63e-05, "MEAN_MOTION_DDOT": 0}, "tle": {"line1": "1 31992U 99025CPV 25346.16971404  .00001630  00000+0  18085-2 0  9994", "line2": "2 31992  99.1658 306.1111 0542401  30.9700 332.2249 13.22988689538672"}}, "geometry": {"type": "Point", "coordinates": [117.50785589782373, -50.390858555188586]}}, {"type": "Feature", "properties": {"norad_id": 31993, "name": "FENGYUN 1C DEB", "group": "fengyun-1c-debris", "lat": -50.31964199770577, "lon": -27.50750547136121, "alt_km": 1481.0245309317324, "timestamp": "2025-12-15T04:01:20.736820+00:00", "meta": {"OBJECT_NAME": "FENGYUN 1C DEB", "OBJECT_ID": "1999-025CPW", "EPOCH": "2025-12-14T04:46:59.917440", "MEAN_MOTION": 13.27456305, "ECCENTRICITY": 0.04218085, "INCLINATION": 99.2406, "RA_OF_ASC_NODE": 320.3102, "ARG_OF_PERICENTER": 131.7316, "MEAN_ANOMALY": 232.0693, "EPHEMERIS_TYPE": 0, "CLASSIFICATION_TYPE": "U", "NORAD_CAT_ID": 31993, "ELEMENT_SET_NO": 999, "REV_AT_EPOCH": 88962, "BSTAR": 0.0019620406, "MEAN_MOTION_DOT": 1.397e-05, "MEAN_MOTION_DDOT": 0}, "tle": {"line1": "1 31993U 99025CPW 25348.19930460  .00001397  00000+0  19620-2 0  9993", "line2": "2 31993  99.2406 320.3102 0421808 131.7316 232.0693 13.27456305889627"}}, "geometry": {"type": "Point", "coordinates": [-27.50750547136121, -50.31964199770577]}}, {"type": "Feature", "properties": {"norad_id": 31994, "name": "FENGYUN 1C DEB", "group": "fengyun-1c-debris", "lat": 20.76280332668602, "lon": -20.096958790229973, "alt_km": 962.8284273252011, "timestamp": "2025-12-15T04:01:20.736830+00:00", "meta": {"OBJECT_NAME": "FENGYUN 1C DEB", "OBJECT_ID": "1999-025CPX", "EPOCH": "2025-12-14T05:33:14.211936", "MEAN_MOTION": 13.9575912, "ECCENTRICITY": 0.01623372, "INCLINATION": 98.5393, "RA_OF_ASC_NODE": 342.3002, "ARG_OF_PERICENTER": 141.9406, "MEAN_ANOMALY": 219.3358, "EPHEMERIS_TYPE": 0, "CLASSIFICATION_TYPE": "U", "NORAD_CAT_ID": 31994, "ELEMENT_SET_NO": 999, "REV_AT_EPOCH": 56817, "BSTAR": 1.3352095e-05, "MEAN_MOTION_DOT": -1.8e-07, "MEAN_MOTION_DDOT": 0}, "tle": {"line1": "1 31994U 99025CPX 25348.23141449 -.00000018  00000+0  13352-4 0  9998", "line2": "2 31994  98.5393 342.3002 0162337 141.9406 219.3358 13.95759120568176"}}, "geometry": {"type": "Point", "coordinates": [-20.096958790229973, 20.76280332668602]}}, {"type": "Feature", "properties": {"norad_id": 31997, "name": "FENGYUN 1C DEB", "group": "fengyun-1c-debris", "lat": 46.19381848251469, "lon": 19.95176084773066, "alt_km": 1189.4858220460064, "timestamp": "2025-12-15T04:01:20.736841+00:00", "meta": {"OBJECT_NAME": "FENGYUN 1C DEB", "OBJECT_ID": "1999-025CQA", "EPOCH": "2025-12-13T09:25:56.337888", "MEAN_MOTION": 13.6067837, "ECCENTRICITY": 0.02900341, "INCLINATION": 102.5108, "RA_OF_ASC_NODE": 31.0702, "ARG_OF_PERICENTER": 272.3315, "MEAN_ANOMALY": 84.4639, "EPHEMERIS_TYPE": 0, "CLASSIFICATION_TYPE": "U", "NORAD_CAT_ID": 31997, "ELEMENT_SET_NO": 999, "REV_AT_EPOCH": 61692, "BSTAR": 0.0032564091, "MEAN_MOTION_DOT": 3.18e-05, "MEAN_MOTION_DDOT": 0}, "tle": {"line1": "1 31997U 99025CQA 25347.39301317  .00003180  00000+0  32564-2 0  9995", "line2": "2 31997 102.5108  31.0702 0290034 272.3315  84.4639 13.60678370616921"}}, "geometry": {"type": "Point", "coordinates": [19.95176084773066, 46.19381848251469]}}, {"type": "Feature", "properties": {"norad_id": 32086, "name": "FENGYUN 1C DEB", "group": "fengyun-1c-debris", "lat": 1.3646398451628912, "lon": 43.765456199095446, "alt_km": 1137.662158425319, "timestamp": "2025-12-15T04:01:20.736851+00:00", "meta": {"OBJECT_NAME": "FENGYUN 1C DEB", "OBJECT_ID": "1999-025CQC", "EPOCH": "2025-12-08T22:54:23.642784", "MEAN_MOTION": 13.68864745, "ECCENTRICITY": 0.0300639, "INCLINATION": 99.2693, "RA_OF_ASC_NODE": 38.0068, "ARG_OF_PERICENTER": 145.3801, "MEAN_ANOMALY": 216.7328, "EPHEMERIS_TYPE": 0, "CLASSIFICATION_TYPE": "U", "NORAD_CAT_ID": 32086, "ELEMENT_SET_NO": 999, "REV_AT_EPOCH": 61729, "BSTAR": 0.0024856, "MEAN_MOTION_DOT": 2.899e-05, "MEAN_MOTION_DDOT": 0}, "tle": {"line1": "1 32086U 99025CQC 25342.95444031  .00002899  00000+0  24856-2 0  9994", "line2": "2 32086  99.2693  38.0068 0300639 145.3801 216.7328 13.68864745617293"}}, "geometry": {"type": "Point", "coordinates": [43.765456199095446, 1.3646398451628912]}}]}